NORAD_CAT_ID,OBJECT_NAME,OBJECT_TYPE,EPOCH,MEAN_MOTION,ECCENTRICITY,INCLINATION,RA_OF_ASC_NODE,ARG_OF_PERICENTER,MEAN_ANOMALY,BSTAR,MEAN_MOTION_DOT,MEAN_MOTION_DDOT,TLE_LINE0,TLE_LINE1,TLE_LINE2,SEMIMAJOR_AXIS,PERIOD,APOGEE,PERIGEE,DECAYED
54167.0,STARLINK-5243,PAYLOAD,2024-05-24 22:07:34,15.08850497,0.0001706,53.2186,68.7785,112.2145,247.9028,1.6129e-05,-3.1e-07,0.0,0 STARLINK-5243,1 54167U 22141L   24145.92192942 -.00000031  00000-0  16129-4 0  9995,2 54167  53.2186  68.7785 0001706 112.2145 247.9028 15.08850497 87027,6917.848,95.437,540.893,538.533,0.0
54167.0,STARLINK-5243,PAYLOAD,2024-05-25 04:29:06,15.08857947,0.0001284,53.2187,67.589,97.3584,262.7554,9.0284e-05,1.15e-05,0.0,0 STARLINK-5243,1 54167U 22141L   24146.18688171  .00001150  00000-0  90284-4 0  9994,2 54167  53.2187  67.5890 0001284  97.3584 262.7554 15.08857947 87052,6917.826,95.436,540.579,538.802,0.0
54167.0,STARLINK-5243,PAYLOAD,2024-05-25 18:47:36,15.08840339,0.0001325,53.2186,64.9136,87.2237,272.8907,-8.5765e-05,-1.653e-05,0.0,0 STARLINK-5243,1 54167U 22141L   24146.78306047 -.00001653  00000-0 -85765-4 0  9997,2 54167  53.2186  64.9136 0001325  87.2237 272.8907 15.08840339 87145,6917.879,95.438,540.661,538.828,0.0
54167.0,STARLINK-5243,PAYLOAD,2024-05-26 04:19:54,15.08843258,0.0001334,53.2185,63.1278,90.9183,269.1962,-3.9726e-05,-9.2e-06,0.0,0 STARLINK-5243,1 54167U 22141L   24147.18049651 -.00000920  00000-0 -39726-4 0  9999,2 54167  53.2185  63.1278 0001334  90.9183 269.1962 15.08843258 87214,6917.87,95.437,540.658,538.813,0.0
54167.0,STARLINK-5243,PAYLOAD,2024-05-26 23:24:32,15.08843351,0.0001323,53.2181,59.5595,95.2644,264.8499,3.1571e-05,2.15e-06,0.0,0 STARLINK-5243,1 54167U 22141L   24147.97537546  .00000215  00000-0  31571-4 0  9996,2 54167  53.2181  59.5595 0001323  95.2644 264.8499 15.08843351 87322,6917.87,95.437,540.65,538.82,0.0
54167.0,STARLINK-5243,PAYLOAD,2024-05-27 10:32:17,15.08795133,0.0001121,53.2181,57.4797,109.3577,250.7536,-0.00043828,-7.247e-05,0.0,0 STARLINK-5243,1 54167U 22141L   24148.43909254 -.00007247  00000-0 -43828-3 0  9998,2 54167  53.2181  57.4797 0001121 109.3577 250.7536 15.08795133 87398,6918.018,95.44,540.658,539.107,0.0
54167.0,STARLINK-5243,PAYLOAD,2024-05-27 18:29:10,15.08833312,0.0001495,53.219,55.9911,95.7369,264.3794,7.4404e-05,8.96e-06,0.0,0 STARLINK-5243,1 54167U 22141L   24148.77026227  .00000896  00000-0  74404-4 0  9991,2 54167  53.2190  55.9911 0001495  95.7369 264.3794 15.08833312 87445,6917.901,95.438,540.8,538.732,0.0
54167.0,STARLINK-5243,PAYLOAD,2024-05-27 21:39:56,15.08833347,0.0001486,53.2189,55.3963,99.1339,260.9821,6.9143e-05,8.12e-06,0.0,0 STARLINK-5243,1 54167U 22141L   24148.90274253  .00000812  00000-0  69143-4 0  9992,2 54167  53.2189  55.3963 0001486  99.1339 260.9821 15.08833347 87473,6917.901,95.438,540.794,538.738,0.0
54167.0,STARLINK-5243,PAYLOAD,2024-05-28 10:23:02,15.0883581,0.0001511,53.2191,53.0179,98.12,261.9964,5.3687e-05,5.66e-06,0.0,0 STARLINK-5243,1 54167U 22141L   24149.43266292  .00000566  00000-0  53687-4 0  9997,2 54167  53.2191  53.0179 0001511  98.1200 261.9964 15.08835810 87550,6917.893,95.438,540.803,538.713,0.0
54167.0,STARLINK-5243,PAYLOAD,2024-05-29 00:41:30,15.08809328,0.0001609,53.218,50.3382,99.2825,260.8349,0.00040275,6.122e-05,0.0,0 STARLINK-5243,1 54167U 22141L   24150.02883021  .00006122  00000-0  40275-3 0  9991,2 54167  53.2180  50.3382 0001609  99.2825 260.8349 15.08809328 87636,6917.974,95.439,540.952,538.726,0.0
54167.0,STARLINK-5243,PAYLOAD,2024-05-29 22:56:54,15.08839924,0.0001533,53.2187,46.1812,101.7275,258.3889,0.0001097,1.458e-05,0.0,0 STARLINK-5243,1 54167U 22141L   24150.95618291  .00001458  00000-0  10970-3 0  9994,2 54167  53.2187  46.1812 0001533 101.7275 258.3889 15.08839924 87780,6917.881,95.438,540.806,538.685,0.0
54167.0,STARLINK-5243,PAYLOAD,2024-05-30 02:07:40,15.08847524,0.0001634,53.219,45.5808,83.2432,276.8746,9.7295e-05,1.261e-05,0.0,0 STARLINK-5243,1 54167U 22141L   24151.08865902  .00001261  00000-0  97295-4 0  9990,2 54167  53.2190  45.5808 0001634  83.2432 276.8746 15.08847524 87796,6917.857,95.437,540.853,538.592,0.0
54167.0,STARLINK-5243,PAYLOAD,2024-05-30 21:12:17,15.08847839,0.000174,53.2197,42.0074,72.4263,287.6919,0.00011613,1.561e-05,0.0,0 STARLINK-5243,1 54167U 22141L   24151.88353895  .00001561  00000-0  11613-3 0  9993,2 54167  53.2197  42.0074 0001740  72.4263 287.6919 15.08847839 87915,6917.856,95.437,540.925,538.518,0.0
54167.0,STARLINK-5243,PAYLOAD,2024-05-31 01:58:26,15.08855168,0.0001606,53.2198,41.116,79.7357,280.3816,0.00015866,2.239e-05,0.0,0 STARLINK-5243,1 54167U 22141L   24152.08225169  .00002239  00000-0  15866-3 0  9995,2 54167  53.2198  41.1160 0001606  79.7357 280.3816 15.08855168 87940,6917.834,95.437,540.81,538.588,0.0
54167.0,STARLINK-5243,PAYLOAD,2024-05-31 21:03:04,15.08843092,0.0001282,53.217,37.5559,88.7407,271.3732,9.826e-05,1.276e-05,0.0,0 STARLINK-5243,1 54167U 22141L   24152.87713757  .00001276  00000-0  98260-4 0  9997,2 54167  53.2170  37.5559 0001282  88.7407 271.3732 15.08843092 88061,6917.871,95.437,540.623,538.849,0.0
54167.0,STARLINK-5243,PAYLOAD,2024-05-31 22:38:27,15.08851358,0.0001363,53.2174,37.2574,101.0181,259.0964,4.3109e-05,3.98e-06,0.0,0 STARLINK-5243,1 54167U 22141L   24152.94337360  .00000398  00000-0  43109-4 0  9993,2 54167  53.2174  37.2574 0001363 101.0181 259.0964 15.08851358 88083,6917.846,95.437,540.654,538.768,0.0
54167.0,STARLINK-5243,PAYLOAD,2024-06-01 09:46:09,15.08843266,0.0001389,53.2172,35.1766,103.0503,257.0645,-1.8489e-05,-5.82e-06,0.0,0 STARLINK-5243,1 54167U 22141L   24153.40705817 -.00000582  00000-0 -18489-4 0  9991,2 54167  53.2172  35.1766 0001389 103.0503 257.0645 15.08843266 88150,6917.87,95.437,540.696,538.775,0.0
54167.0,STARLINK-5243,PAYLOAD,2024-06-01 22:29:15,15.0884171,0.0001774,53.2195,32.7978,99.0644,261.0549,-2.0415e-05,-6.13e-06,0.0,0 STARLINK-5243,1 54167U 22141L   24153.93698107 -.00000613  00000-0 -20415-4 0  9999,2 54167  53.2195  32.7978 0001774  99.0644 261.0549 15.08841710 88229,6917.875,95.437,540.967,538.513,0.0
54167.0,STARLINK-5243,PAYLOAD,2024-06-02 22:20:02,15.08835188,0.0001295,53.2173,28.3388,91.0084,269.1057,2.1854e-05,6e-07,0.0,0 STARLINK-5243,1 54167U 22141L   24154.93058576  .00000060  00000-0  21854-4 0  9992,2 54167  53.2173  28.3388 0001295  91.0084 269.1057 15.08835188 88381,6917.895,95.438,540.656,538.864,0.0
54167.0,STARLINK-5243,PAYLOAD,2024-06-03 01:30:48,15.08836427,0.000122,53.2187,27.7459,87.2833,272.8299,1.5512e-05,-4.1e-07,0.0,0 STARLINK-5243,1 54167U 22141L   24155.06306527 -.00000041  00000-0  15512-4 0  9993,2 54167  53.2187  27.7459 0001220  87.2833 272.8299 15.08836427 88392,6917.891,95.438,540.6,538.912,0.0
54167.0,STARLINK-5243,PAYLOAD,2024-06-03 22:10:49,15.08837839,0.000125,53.2175,23.878,95.7343,264.3792,0.00012615,1.72e-05,0.0,0 STARLINK-5243,1 54167U 22141L   24155.92418402  .00001720  00000-0  12615-3 0  9998,2 54167  53.2175  23.8780 0001250  95.7343 264.3792 15.08837839 88534,6917.887,95.438,540.617,538.887,0.0
54167.0,STARLINK-5243,PAYLOAD,2024-06-04 07:43:08,15.08842877,0.0001436,53.2192,22.094,94.0126,266.1031,0.00011362,1.521e-05,0.0,0 STARLINK-5243,1 54167U 22141L   24156.32162190  .00001521  00000-0  11362-3 0  9990,2 54167  53.2192  22.0940 0001436  94.0126 266.1031 15.08842877 88588,6917.872,95.437,540.73,538.743,0.0
54167.0,STARLINK-5243,PAYLOAD,2024-06-04 22:01:36,15.088382,0.0001198,53.2173,19.4166,73.3718,286.7406,6.8657e-05,8.05e-06,0.0,0 STARLINK-5243,1 54167U 22141L   24156.91778708  .00000805  00000-0  68657-4 0  9997,2 54167  53.2173  19.4166 0001198  73.3718 286.7406 15.08838200 88689,6917.886,95.438,540.58,538.922,0.0
54167.0,STARLINK-5243,PAYLOAD,2024-06-05 15:30:52,15.08830966,0.0001486,53.2229,16.1456,87.6309,272.4853,5.3958e-06,-2.02e-06,0.0,0 STARLINK-5243,1 54167U 22141L   24157.64643519 -.00000202  00000-0  53958-5 0  9990,2 54167  53.2229  16.1456 0001486  87.6309 272.4853 15.08830966 88781,6917.908,95.438,540.801,538.745,0.0
54167.0,STARLINK-5243,PAYLOAD,2024-06-05 23:27:47,15.08844227,0.0001282,53.2201,14.6575,76.4409,283.6726,-2.036e-05,-6.12e-06,0.0,0 STARLINK-5243,1 54167U 22141L   24157.97762854 -.00000612  00000-0 -20360-4 0  9996,2 54167  53.2201  14.6575 0001282  76.4409 283.6726 15.08844227 88831,6917.867,95.437,540.619,538.846,0.0
54167.0,STARLINK-5243,PAYLOAD,2024-06-07 07:15:30,15.08834239,0.0001425,53.2215,8.7115,70.6818,289.4329,3.0816e-05,2.02e-06,0.0,0 STARLINK-5243,1 54167U 22141L   24159.30243066  .00000202  00000-0  30816-4 0  9994,2 54167  53.2215   8.7115 0001425  70.6818 289.4329 15.08834239 89037,6917.898,95.438,540.749,538.777,0.0
54167.0,STARLINK-5243,PAYLOAD,2024-06-07 13:37:03,15.08831923,0.0001585,53.2173,7.5232,79.8149,280.3021,0.00011023,1.466e-05,0.0,0 STARLINK-5243,1 54167U 22141L   24159.56739584  .00001466  00000-0  11023-3 0  9998,2 54167  53.2173   7.5232 0001585  79.8149 280.3021 15.08831923 89083,6917.905,95.438,540.867,538.674,0.0
54167.0,STARLINK-5243,PAYLOAD,2024-06-07 19:58:35,15.08831662,0.0001097,53.213,6.3326,81.3202,278.7914,0.00012493,1.701e-05,0.0,0 STARLINK-5243,1 54167U 22141L   24159.83235490  .00001701  00000-0  12493-3 0  9999,2 54167  53.2130   6.3326 0001097  81.3202 278.7914 15.08831662 89120,6917.906,95.438,540.53,539.012,0.0
54167.0,STARLINK-5243,PAYLOAD,2024-06-08 07:06:16,15.08845163,0.0001899,53.2167,4.2502,84.0768,276.0441,5.5901e-05,6.02e-06,0.0,0 STARLINK-5243,1 54167U 22141L   24160.29602996  .00000602  00000-0  55901-4 0  9991,2 54167  53.2167   4.2502 0001899  84.0768 276.0441 15.08845163 89183,6917.865,95.437,541.043,538.416,0.0
54167.0,STARLINK-5243,PAYLOAD,2024-06-08 21:24:44,15.08844733,0.0001818,53.217,1.574,85.8741,274.2459,0.00017364,2.477e-05,0.0,0 STARLINK-5243,1 54167U 22141L   24160.89218439  .00002477  00000-0  17364-3 0  9994,2 54167  53.2170   1.5740 0001818  85.8741 274.2459 15.08844733 89284,6917.866,95.437,540.989,538.473,0.0
